{
  "type": "FeatureCollection",
  "features": [
    {
      "type": "Feature",
      "properties": {
        "norad_id": 38493,
        "name": "FENGYUN 1C DEB",
        "group": "fengyun-1c-debris",
        "lat": 72.65520165949081,
        "lon": 149.05799601463227,
        "alt_km": 1319.974446553796,
        "timestamp": "2025-12-04T07:39:36.423867+00:00",
        "meta_object_name": "FENGYUN 1C DEB",
        "meta_object_id": "1999-025ESC",
        "meta_epoch": "2025-12-02T14:34:29.911296",
        "meta_mean_motion": 13.62300089,
        "meta_eccentricity": 0.04265045,
        "meta_inclination": 99.0775,
        "meta_ra_of_asc_node": 296.6706,
        "meta_arg_of_pericenter": 271.5685,
        "meta_mean_anomaly": 83.6659,
        "meta_ephemeris_type": 0,
        "meta_classification_type": "U",
        "meta_norad_cat_id": 38493,
        "meta_element_set_no": 999,
        "meta_rev_at_epoch": 56360,
        "meta_bstar": 0.00057752132,
        "meta_mean_motion_dot": 7.81e-06,
        "meta_mean_motion_ddot": 0,
        "tle_line1": "1 38493U 99025ESC 25336.60729064  .00000781  00000+0  57752-3 0  9999",
        "tle_line2": "2 38493  99.0775 296.6706 0426504 271.5685  83.6659 13.62300089563606"
      },
      "geometry": {
        "type": "Point",
        "coordinates": [
          149.05799601463227,
          72.65520165949081
        ]
      }
    },
    {
      "type": "Feature",
      "properties": {
        "norad_id": 38494,
        "name": "FENGYUN 1C DEB",
        "group": "fengyun-1c-debris",
        "lat": 64.9233773487986,
        "lon": -89.33023679925059,
        "alt_km": 650.606591445272,
        "timestamp": "2025-12-04T07:39:36.423876+00:00",
        "meta_object_name": "FENGYUN 1C DEB",
        "meta_object_id": "1999-025ESD",
        "meta_epoch": "2025-11-30T02:08:48.245856",
        "meta_mean_motion": 13.99599294,
        "meta_eccentricity": 0.0387254,
        "meta_inclination": 98.433,
        "meta_ra_of_asc_node": 285.2437,
        "meta_arg_of_pericenter": 44.6936,
        "meta_mean_anomaly": 318.476,
        "meta_ephemeris_type": 0,
        "meta_classification_type": "U",
        "meta_norad_cat_id": 38494,
        "meta_element_set_no": 999,
        "meta_rev_at_epoch": 6977,
        "meta_bstar": 0.0054391,
        "meta_mean_motion_dot": 0.00015208,
        "meta_mean_motion_ddot": 0,
        "tle_line1": "1 38494U 99025ESD 25334.08944729  .00015208  00000+0  54391-2 0  9992",
        "tle_line2": "2 38494  98.4330 285.2437 0387254  44.6936 318.4760 13.99599294 69777"
      },
      "geometry": {
        "type": "Point",
        "coordinates": [
          -89.33023679925059,
          64.9233773487986
        ]
      }
    },
    {
      "type": "Feature",
      "properties": {
        "norad_id": 38495,
        "name": "FENGYUN 1C DEB",
        "group": "fengyun-1c-debris",
        "lat": 39.9350563748195,
        "lon": -12.711664490796643,
        "alt_km": 1088.920459650074,
        "timestamp": "2025-12-04T07:39:36.423886+00:00",
        "meta_object_name": "FENGYUN 1C DEB",
        "meta_object_id": "1999-025ESE",
        "meta_epoch": "2025-12-02T06:20:41.771904",
        "meta_mean_motion": 13.69106573,
        "meta_eccentricity": 0.0252581,
        "meta_inclination": 99.1709,
        "meta_ra_of_asc_node": 353.1036,
        "meta_arg_of_pericenter": 165.9119,
        "meta_mean_anomaly": 194.9245,
        "meta_ephemeris_type": 0,
        "meta_classification_type": "U",
        "meta_norad_cat_id": 38495,
        "meta_element_set_no": 999,
        "meta_rev_at_epoch": 60969,
        "meta_bstar": 0.0025866,
        "meta_mean_motion_dot": 2.759e-05,
        "meta_mean_motion_ddot": 0,
        "tle_line1": "1 38495U 99025ESE 25336.26437236  .00002759  00000+0  25866-2 0  9997",
        "tle_line2": "2 38495  99.1709 353.1036 0252581 165.9119 194.9245 13.69106573609697"
      },
      "geometry": {
        "type": "Point",
        "coordinates": [
          -12.711664490796643,
          39.9350563748195
        ]
      }
    },
    {
      "type": "Feature",
      "properties": {
        "norad_id": 38496,
        "name": "FENGYUN 1C DEB",
        "group": "fengyun-1c-debris",
        "lat": 9.816184705173683,
        "lon": -13.263375993659958,
        "alt_km": 808.7515014813471,
        "timestamp": "2025-12-04T07:39:36.423895+00:00",
        "meta_object_name": "FENGYUN 1C DEB",
        "meta_object_id": "1999-025ESF",
        "meta_epoch": "2025-12-02T19:50:53.821248",
        "meta_mean_motion": 14.09951283,
        "meta_eccentricity": 0.00773026,
        "meta_inclination": 98.7623,
        "meta_ra_of_asc_node": 346.8127,
        "meta_arg_of_pericenter": 35.254,
        "meta_mean_anomaly": 325.371,
        "meta_ephemeris_type": 0,
        "meta_classification_type": "U",
        "meta_norad_cat_id": 38496,
        "meta_element_set_no": 999,
        "meta_rev_at_epoch": 80881,
        "meta_bstar": 0.0012363442,
        "meta_mean_motion_dot": 2.198e-05,
        "meta_mean_motion_ddot": 0,
        "tle_line1": "1 38496U 99025ESF 25336.82701182  .00002198  00000+0  12363-2 0  9999",
        "tle_line2": "2 38496  98.7623 346.8127 0077302  35.2540 325.3710 14.09951283808814"
      },
      "geometry": {
        "type": "Point",
        "coordinates": [
          -13.263375993659958,
          9.816184705173683
        ]
      }
    },
    {
      "type": "Feature",
      "properties": {
        "norad_id": 38498,
        "name": "FENGYUN 1C DEB",
        "group": "fengyun-1c-debris",
        "lat": 14.545892700654862,
        "lon": -3.044198406829294,
        "alt_km": 1154.276317327559,
        "timestamp": "2025-12-04T07:39:36.423905+00:00",
        "meta_object_name": "FENGYUN 1C DEB",
        "meta_object_id": "1999-025ESH",
        "meta_epoch": "2025-12-02T07:26:08.627712",
        "meta_mean_motion": 12.96587855,
        "meta_eccentricity": 0.05567868,
        "meta_inclination": 99.6992,
        "meta_ra_of_asc_node": 357.7083,
        "meta_arg_of_pericenter": 95.9018,
        "meta_mean_anomaly": 270.5803,
        "meta_ephemeris_type": 0,
        "meta_classification_type": "U",
        "meta_norad_cat_id": 38498,
        "meta_element_set_no": 999,
        "meta_rev_at_epoch": 53608,
        "meta_bstar": 0.0021056117,
        "meta_mean_motion_dot": 1.199e-05,
        "meta_mean_motion_ddot": 0,
        "tle_line1": "1 38498U 99025ESH 25336.30982208  .00001199  00000+0  21056-2 0  9993",
        "tle_line2": "2 38498  99.6992 357.7083 0556786  95.9018 270.5803 12.96587855536083"
      },
      "geometry": {
        "type": "Point",
        "coordinates": [
          -3.044198406829294,
          14.545892700654862
        ]
      }
    },
    {
      "type": "Feature",
      "properties": {
        "norad_id": 38510,
        "name": "FENGYUN 1C DEB",
        "group": "fengyun-1c-debris",
        "lat": -55.74142363211263,
        "lon": 154.88025118207392,
        "alt_km": 822.0234124489807,
        "timestamp": "2025-12-04T07:39:36.423914+00:00",
        "meta_object_name": "FENGYUN 1C DEB",
        "meta_object_id": "1999-025ESV",
        "meta_epoch": "2025-11-26T06:32:42.236448",
        "meta_mean_motion": 14.13269737,
        "meta_eccentricity": 0.00981735,
        "meta_inclination": 98.6025,
        "meta_ra_of_asc_node": 339.985,
        "meta_arg_of_pericenter": 196.9618,
        "meta_mean_anomaly": 162.8266,
        "meta_ephemeris_type": 0,
        "meta_classification_type": "U",
        "meta_norad_cat_id": 38510,
        "meta_element_set_no": 999,
        "meta_rev_at_epoch": 88437,
        "meta_bstar": 0.0006714866,
        "meta_mean_motion_dot": 1.276e-05,
        "meta_mean_motion_ddot": 0,
        "tle_line1": "1 38510U 99025ESV 25330.27271107  .00001276  00000+0  67149-3 0  9997",
        "tle_line2": "2 38510  98.6025 339.9850 0098173 196.9618 162.8266 14.13269737884378"
      },
      "geometry": {
        "type": "Point",
        "coordinates": [
          154.88025118207392,
          -55.74142363211263
        ]
      }
    },
    {
      "type": "Feature",
      "properties": {
        "norad_id": 38512,
        "name": "FENGYUN 1C DEB",
        "group": "fengyun-1c-debris",
        "lat": 25.48042351428025,
        "lon": -142.8702787747716,
        "alt_km": 1016.0948102883476,
        "timestamp": "2025-12-04T07:39:36.423923+00:00",
        "meta_object_name": "FENGYUN 1C DEB",
        "meta_object_id": "1999-025ESX",
        "meta_epoch": "2025-11-24T15:04:33.900960",
        "meta_mean_motion": 13.73922037,
        "meta_eccentricity": 0.02258852,
        "meta_inclination": 98.3776,
        "meta_ra_of_asc_node": 212.6517,
        "meta_arg_of_pericenter": 154.1881,
        "meta_mean_anomaly": 207.075,
        "meta_ephemeris_type": 0,
        "meta_classification_type": "U",
        "meta_norad_cat_id": 38512,
        "meta_element_set_no": 999,
        "meta_rev_at_epoch": 59321,
        "meta_bstar": 0.0011065478,
        "meta_mean_motion_dot": 1.212e-05,
        "meta_mean_motion_ddot": 0,
        "tle_line1": "1 38512U 99025ESX 25328.62817015  .00001212  00000+0  11065-2 0  9994",
        "tle_line2": "2 38512  98.3776 212.6517 0225885 154.1881 207.0750 13.73922037593211"
      },
      "geometry": {
        "type": "Point",
        "coordinates": [
          -142.8702787747716,
          25.48042351428025
        ]
      }
    }
  ]
}